ONEWEB-0512             
1 54130U 22138T   24149.93514276  .00000089  00000+0  18979-3 0  9999
2 54130  87.9147  94.0844 0002217  95.0995 265.0390 13.19723124 77988
ONEWEB-0513             
1 54131U 22138U   24149.90592444 -.00000042  00000+0 -13636-3 0  9996
2 54131  87.9146  94.0850 0002043 100.6367 259.4996 13.19725913 77862
ONEWEB-0514             
1 54132U 22138V   24149.87511502  .00000018  00000+0  11752-4 0  9998
2 54132  87.9141  94.0879 0002028  81.8740 278.2623 13.19728325 77997
ONEWEB-0515             
1 54133U 22138W   24149.80846032  .00001983  00000+0  48451-2 0  9997
2 54133  87.9218  63.5126 0002484  59.4766 300.6612 13.20763444 80382
ONEWEB-0516             
1 54134U 22138X   24149.92566668  .00000064  00000+0  12770-3 0  9990
2 54134  87.9149  94.0872 0002163  82.3954 277.7424 13.19723432 78003
ONEWEB-0517             
1 54135U 22138Y   24149.82930497 -.00000006  00000+0 -47130-4 0  9992
2 54135  87.9142  94.0932 0001554  84.4446 275.6863 13.19728321 78866
ONEWEB-0518             
1 54136U 22138Z   24150.22734985  .00000076  00000+0  15708-3 0  9993
2 54136  87.9149  94.0257 0001942  82.8790 277.2564 13.19727854 78911
ONEWEB-0519             
1 54137U 22138AA  24149.87354324  .00000068  00000+0  13828-3 0  9990
2 54137  87.9140  94.0800 0001988  94.4715 265.6645 13.19727263 78008
